id,name,url,type,primary_use,address,neighbourhood,ownership,area,capacity,active_space,longitude,latitiude
1,15th Field Artillery Regiment Museum and Archives,www.memorybc.ca/museum-of-15th-field-artillery-regiment,Museum/Gallery,Museum/Gallery,"2025 W 11th Av, Vancouver, BC, V6J 2C7",Kitsilano,Privately Owned,,,Yes,-123.151123,49.261938
2,221A Artist Run Centre,www.221a.ca/?,Museum/Gallery,Museum/Gallery,"221 E Georgia St, Vancouver, BC, V6A 1Z6",Strathcona,Privately Owned,9000,,Yes,-123.098796,49.278786
3,222 E Georgia Studios,http://projectspace.ca/blog/,Studio/Rehearsal ,Artist Studio,"222 E Georgia St, Vancouver, BC, V6A 1Z7",Strathcona,Privately Owned,5980,,Yes,-123.098829,49.278453
4,2nd Beach field House,http://vancouver.ca/parks-recreation-culture/second-beach.aspx,Studio/Rehearsal ,Artist Studio," Stanley Park Drive, Vancouver, BC, V6G 3E2",,Park Board/COV,,,Yes,-123.150402,49.295416
5,Aberthau Mansion /West Point Grey Community Centre,,Community Space,Community Centre/Hall,"4397 W 2nd Av, Vancouver, BC, V6R 1K4",West Point Grey,City of Vancouver,2930.25,,Yes,-123.205213,49.271511
6,Acme Studios,https://www.facebook.com/ACMEstudiobuilding,Studio/Rehearsal ,Artist Studio,"112 E Hastings St, Vancouver, BC, V6A 4J1",Downtown,Privately Owned,30000,,Yes,-123.101791,49.281101
7,AHVA Gallery,http://gallery.ahva.ubc.ca/about/,Museum/Gallery,Museum/Gallery,"6398 University Blvd, Vancouver, BC, ",,Other,1990,,Yes,-123.2549451,49.2639124
8,Al Mozaico Flamenco Dance Academy,http://www.mozaicoflamenco.com/,Educational,Educational Institution,"828 E Hastings St, Vancouver, BC, V6A 1R6",Strathcona,Privately Owned,,,Yes,-123.0864434,49.2810234
9,Alliance For Arts And Culture,http://www.allianceforarts.com,Museum/Gallery,Library/Archives,"938 Howe St, Vancouver, BC, V6Z 1N9",Downtown,Privately Owned,4095,30,Yes,-123.1228359,49.2803099
10,Alliance Franﾇaise De Vancouver,http://www.alliancefrancaise.ca/,Community Space,Community Centre/Hall,"6161 Cambie St, Vancouver, BC, V5Z 3B2",Oakridge,Privately Owned,,,Yes,-123.1169818,49.228879
11,"Anderson Street Space, The",www.bocadellupo.com/?,Studio/Rehearsal ,Rehearsal Studio,"1405 Anderson St, Vancouver, BC, V6H 3R5",Fairview,Privately Owned,400,30,Yes,-123.134975,49.271656
12,Anza Club (Australia-New Zealand Association),http://www.anzaclub.org,Theatre/Performance,Performance Space,"3 W 8th Av, Vancouver, BC, V5Y 1M8",Mount Pleasant,Non-Profit,2885,135,Yes,-123.105108,49.263974
13,"Arc, The",http://arcgallery.ca/?page_id=11,Studio/Rehearsal ,Artist Studio,"1701 Powell St, Vancouver, BC, V5L 5C9",Grandview-Woodland,Privately Owned,,,Yes,-123.069973,49.284217
14,Architectural Institute of BC Gallery,www.aibc.ca,Museum/Gallery,Museum/Gallery,"440 Cambie St, Vancouver, BC, V6B 2N5",Downtown,,250,,Yes,-123.1095005,49.2817199
15,Art Beatus,www.artbeatus.com,Museum/Gallery,Museum/Gallery,"808 Nelson St, Vancouver, BC, V6Z 2H2",Downtown,Privately Owned,3700,,Yes,-123.1249139,49.2800409
16,Art Club/Bard On Beach Production Centre Theatre,,Studio/Rehearsal ,Workshop,"162 W 1st Av, Vancouver, BC, V5Y 1A4",Mount Pleasant,City of Vancouver,,,Yes,-123.108535,49.2702275
17,Art Club/Bard On Beach Production Centre Theatre,,Theatre/Performance,Theatre,"162 W 1st Av, Vancouver, BC, V5Y 1A4",Mount Pleasant,City of Vancouver,44500,250,Yes,-123.108576,49.270223
18,Art Emporium,http://www.theartemporium.ca,Museum/Gallery,Museum/Gallery,"2928 Granville St, Vancouver, BC, V6H 3J7",Fairview,Privately Owned,,,Yes,-123.1383072,49.2593906
19,Art Works Gallery,http://artworksbc.com/,Museum/Gallery,Museum/Gallery,"225 Smithe St, Vancouver, BC, V6B 4X7",Downtown,Privately Owned,,,Yes,-123.1165781,49.2775077
20,Arts Club Theatre - Backstage Lounge,www.thebackstagelounge.com,Cafﾂ/Restaurant/Bar,Bar/Lounge/Cabaret,"1585 Johnston St, Vancouver, BC, V6H 3R9",Fairview,Government,,60,Yes,-123.134363,49.272102
21,Arts Club Theatre - Granville Island Stage,www.artsclub.com,Theatre/Performance,Theatre,"1585 Johnston St, Vancouver, BC, V6H 3R9",Fairview,Government,17790,430,Yes,-123.134362,49.272124
22,Arts Club Theatre - Production Centre,,Studio/Rehearsal ,Workshop,"1377 Cartwright St, Vancouver, BC, V6H 3R7",Fairview,Government,11282,,Yes,-123.1347122,49.2700047
23,Arts Club Theatre Revue Stage,http://www.artsclub.com,Theatre/Performance,Theatre,"1601 Johnston St, Vancouver, BC, V6H 3R9",Fairview,Government,6428,198,Yes,-123.13467,49.272235
24,Arts Club Theatre -Stanley Industrial Alliance Stage,http://www.artsclub.com,Theatre/Performance,Theatre,"2750 Granville St, Vancouver, BC, V6H 3J3",Fairview,Non-Profit,16500,650,Yes,-123.1382118,49.261346
25,Arts Factory, http://www.artsfactorysociety.ca/,Studio/Rehearsal ,Artist Studio,"281 Industrial, Vancouver, BC, V5A 2P2",Strathcona,City of Vancouver,21000,,Yes,-123.098517,49.270111
26,Arts Umbrella,www.artsumbrella.com,Educational,Educational Institution,"1286 Cartwright St, Vancouver, BC, V6H 3R8",Fairview,Government,18000,,Yes,-123.133395,49.269611
27,Arts Umbrella - E 7th,http://www.artsumbrella.com/contact,Educational,Educational Institution,"77 E 7th Av, Vancouver, BC, V5T 1M4",Mount Pleasant,Other,,,Yes,-123.1033467,49.2648965
28,Artspeak Gallery,www.artspeak.ca/?,Museum/Gallery,Museum/Gallery,"233 Carrall St, Vancouver, BC, V6B 2J2",Downtown,Non-Profit,990,,Yes,-123.104299,49.282941
29,Artstarts In Schools,www.artstarts.com,Museum/Gallery,Museum/Gallery,"808 Richards St, Vancouver, BC, V6B 3A7",Downtown,Privately Owned,6000,,Yes,-123.1179808,49.2799985
30,Astorino's Hall,http://www.safeamp.org/events/astorinos.html,Theatre/Performance,Performance Space,"1739 Venables St, Vancouver, BC, V5L 2H3",Grandview-Woodland,Privately Owned,3000,,Yes,-123.0698555,49.2769146
31,Audain Gallery,https://www.sfu.ca/galleries/audain-gallery.html,Museum/Gallery,Museum/Gallery,"149 W Hastings St, Vancouver, BC, V6B 1H4",Downtown,Other,,,Yes,-123.108715,49.282395
32,Ayden Gallery,www.aydengallery.com?,Museum/Gallery,Museum/Gallery,"88 W Pender St, Vancouver, BC, V6B 6N9",Downtown,Privately Owned,4100,,Yes,-123.1071802,49.2809655
33,Back Gallery Project,http://www.backgalleryproject.com/,Museum/Gallery,Museum/Gallery,"602 E Hastings St, Vancouver, BC, V6A 1R1",Strathcona,Privately Owned,900,,Yes,-123.0914,49.281137
34,Backspace - Blake Williams,www.blakewilliams.ca,Studio/Rehearsal ,Artist Studio,"1318 Grant St, Vancouver, BC, V5L 2X5",Grandview-Woodland,Privately Owned,1700,75,Yes,-123.076821,49.27146
35,BAF Studio,http://www.burrardarts.org/about.html,Museum/Gallery,Museum/Gallery,"108 E Broadway Av, Vancouver, BC, V5T 1V9",Mount Pleasant,Privately Owned,2000,,Yes,-123.102505,49.262669
36,BAF Studio,http://www.burrardarts.org/about.html,Studio/Rehearsal ,Artist Studio,"108 E Broadway Av, Vancouver, BC, V5T 1V9",Mount Pleasant,Privately Owned,1200,,Yes,-123.102565,49.2626666
37,Basic Inquiry,http://www.lifedrawing.org/index.html,Museum/Gallery,Museum/Gallery,"1011 Main St, Vancouver, BC, V6A 4L4",Downtown,Privately Owned,,,Yes,-123.1000334,49.2758184
38,Bau-Xi Gallery,www.bau-xi.com,Museum/Gallery,Museum/Gallery,"3045 Granville St, Vancouver, BC, V6H 3J9",Fairview,Privately Owned,,,Yes,-123.1391799,49.258496
39,BC Place Stadium,www.bcplacestadium.com,Community Space,Arena/Stadium,"777 Pacific Blvd, Vancouver, BC, V6B 4Y8",Downtown,Privately Owned,247000,,Yes,-123.110433,49.276156
40,BC Sports Hall of Fame Museum,www.bcsportshalloffame.com,Museum/Gallery,Museum/Gallery,"777 Pacific Blvd S, Vancouver, BC, V6B 4Y8",Downtown,Government,15000,,Yes,-123.110438,49.27619
41,Beaty Biodiversity Museum,http://www.beatymuseum.ubc.ca/about,Museum/Gallery,Museum/Gallery,"2212 Main Mall, Vancouver, BC, V6T 1Z4",,Other,20000,,Yes,-123.251485,49.2634318
42,"Beaumont Studios, The",http://www.thebeaumontstudios.com/,Studio/Rehearsal ,Artist Studio,"316 W 5th Av, Vancouver, BC, V5Y 1J5",Mount Pleasant,Privately Owned,,,Yes,-123.1112172,49.2665809
43,Bill Reid Gallery,www.billreidgallery.ca,Museum/Gallery,Museum/Gallery,"639 Hornby St, Vancouver, BC, V6C 2G3",Downtown,Privately Owned,9000,,Yes,-123.119819,49.284308
44,"Biltmore, The",www.biltmorecabaret.com?,Cafﾂ/Restaurant/Bar,Bar/Lounge/Cabaret,"2755 Prince Edward St, Vancouver, BC, V5T 0A9",Mount Pleasant,Privately Owned,,,Yes,-123.0962422,49.2603045
45,Bloedel Conservatory,http://vancouver.ca/parks-recreation-culture/bloedel-conservatory.aspx,Museum/Gallery,Garden/Aquarium/Science Centre,"4600 Cambie St, Vancouver, BC, V5Y 2M5",Riley Park,Park Board/COV,19600,,Yes,-123.113759,49.242077
46,Blue Wave Productions,www.bluewaveproductions.com/?,Studio/Rehearsal ,Film/Recording Studio,"34 W 8th Av, Vancouver, BC, V5Y 1M7",Mount Pleasant,Privately Owned,3475,,Yes,-123.105751,49.263547
47,Britannia Community Services Centre Society,www.britanniacentre.org,Community Space,Community Centre/Hall,"1661 Napier St, Vancouver, BC, V5L 4X4",Grandview-Woodland,City of Vancouver,,,Yes,-123.0737717,49.2756486
48,Bruhanski Acting Studio,http://bruhanski.com/,Educational,Educational Institution,"164 E 11th Av, Vancouver, BC, V5T 2C2",Mount Pleasant,Privately Owned,,,Yes,-123.1021231,49.2611004
49,Burrard Marina Field House,http://vancouver.ca/parks-recreation-culture/burrard-marina-fieldhouse.aspx,Studio/Rehearsal ,Artist Studio,"1655 Whyte Av, Vancouver, BC, V6J 1A9",Kitsilano,Park Board/COV,,,Yes,-123.1402263,49.2756879
50,Burrardview Park Fieldhouse,https://cfapp.vancouver.ca/parkfinder_wa/index.cfm?fuseaction=FAC.ParkDetails&park_id=67,Studio/Rehearsal ,Artist Studio,"650 North Penticton st, Vancouver, BC, V6G 1Z4",Hastings-Sunrise,Park Board/COV,,,Yes,-123.0519037,49.2912065
51,Cafﾂ Deux Soleils,www.cafedeuxsoleils.com/?,Cafﾂ/Restaurant/Bar,Cafﾂ/Restaurant,"2096 Commercial Dr, Vancouver, BC, V5N 4B2",Grandview-Woodland,Privately Owned,,,Yes,-123.0693229,49.2659754
52,Cambrian Hall,http://www.welshsociety.com/Lab5/,Community Space,Community Centre/Hall,"215 E 17th Av, Vancouver, BC, V5V 1A6",Riley Park,Privately Owned,1584,129,Yes,-123.1005648,49.2559391
53,Canadian Memorial United Church and Centre for Peace,http://canadianmemorial.org/,Community Space,Place of Worship,"1825 W 16th Av, Vancouver, BC, V6J 2M3",Kitsilano,Other,1170,100,Yes,-123.1468654,49.2574655
54,Canadian Music Centre (Bc Region),http://www.musiccentre.ca/regions/british-columbia?field_event_region_value_many_to_one=3,Museum/Gallery,Library/Archives,"837 Davie St, Vancouver, BC, V6Z 1B7",Downtown,Privately Owned,2680,,Yes,-123.127484,49.278055
55,Carnegie Centre,http://vancouver.ca/parks-recreation-culture/carnegie-community-centre.aspx,Theatre/Performance,Performance Space,"401 Main St, Vancouver, BC, V6A 2T7",Downtown,City of Vancouver,40000,,Yes,-123.1001272,49.281052
56,Carousel Theatre for Young People,www.carouseltheatre.ca,Studio/Rehearsal ,Rehearsal Studio,"1411 Cartwright St, Vancouver, BC, V6H 3R7",Fairview,Government,1330,,Yes,-123.13523,49.270336
57,Catriona Jeffries Gallery,www.catrionajeffries.com?,Museum/Gallery,Museum/Gallery,"274 E 1st Av, Vancouver, BC, V5T 1A6",Strathcona,Privately Owned,6500,,Yes,-123.0980394,49.2687198
58,CBC Outdoor Stage,http://www.cbc.ca,Community Space,Plaza/Park/Band Shell,"700 Hamilton, Vancouver, BC, V6B 2R5",Downtown,Government,2623,,Yes,-123.114669,49.279299
59,CBC Studio 700,http://www.cbc.ca/bc/communityspaces/studio700.html#igImgId_11630,Theatre/Performance,Performance Space,"700 Hamilton, Vancouver, BC, V6B 2R5",Downtown,Government,2784,140,Yes,-123.114496,49.279079
60,Center for Digital Media,www.gnwc.ca,Educational,Educational Institution,"555 Great Northern Way, Vancouver, BC, V5T 1E2",Strathcona,Government,51000,,Yes,-123.089605,49.267044
61,"Centre A, Centre For Contemporary Asian Art",http://centrea.org,Museum/Gallery,Museum/Gallery,"229 E Georgia St, Vancouver, BC, V6A 1Z6",Strathcona,Privately Owned,1500,,Yes,-123.098671,49.278676
62,Ceperley Meadow,,Community Space,Plaza/Park/Band Shell," , Vancouver, BC, ",,City of Vancouver,5558,,Yes,-123.148518,49.293772
63,Chali-Rosso Gallery,www.chalirosso.com,Museum/Gallery,Museum/Gallery,"2250 Granville St, Vancouver, BC, V6H 4H7",Fairview,Privately Owned,,,Yes,-123.1384021,49.2657529
64,Champlain Heights Community Centre,https://vancouver.ca/parks-recreation-culture/champlain-heights-community-centre.aspx,Community Space,Community Centre/Hall,"3350 Maquinna Dr, Vancouver, BC, V5S 4C6",Killarney,Park Board/COV,,,Yes,-123.0320663,49.21444806
65,"Chan Centre for The Performing Art, The- Concert Hall",http://www.chancentre.com,Theatre/Performance,Theatre,"6265 Crescent Rd, Vancouver, BC, V6T 1Z1",,Government,,1185,Yes,-123.255108,49.269523
66,"Chan Centre For The Performing Art, The- Telus Studio Theatre",http://www.chancentre.com,Theatre/Performance,Theatre,"6265 Crescent Rd, Vancouver, BC, V6T 1Z1",,Government,,275,Yes,-123.255184,49.269509
67,"Chapel Arts, The",www.chapelarts.com?,Theatre/Performance,Performance Space,"304 Dunlevy St, Vancouver, BC, V6A 3Y4",Strathcona,Privately Owned,2882,,Yes,-123.0953265,49.2821671
68,Charles H. Scott Gallery,www.chscott.ecuad.ca?,Museum/Gallery,Museum/Gallery,"1399 Johnston St, Vancouver, BC, V6H 2R9",Fairview,Government,,,Yes,-123.132876,49.270485
69,Chinese Cultural Centre,www.cccvan.com?,Community Space,Community Centre/Hall,"50 E Pender St, Vancouver, BC, V6A 3V6",Downtown,City of Vancouver,77000,,Yes,-123.1032,49.280315
70,Chinese Cultural Centre Museum and Archives,,Museum/Gallery,Museum/Gallery,"555 Columbia St, Vancouver, BC, V6A 4H5",Downtown,City of Vancouver,,,Yes,-123.102448,49.279894
71,Christ Church Cathedral,http://www.cathedral.vancouver.bc.ca/,Community Space,Place of Worship,"690 Burrard St, Vancouver, BC, V6C 2L1",Downtown,Other,18000,,Yes,-123.1203334,49.2844929
72,Cineworks,http://www.cineworks.ca,Studio/Rehearsal ,Film/Recording Studio,"1131 Howe St, Vancouver, BC, V6Z 2L7",Downtown,City of Vancouver,3000,,Yes,-123.126284,49.278543
73,Circle Craft Co-Operative Shop & Gallery,www.circlecraft.net/,Museum/Gallery,Museum/Gallery,"1666 Johnston St, Vancouver, BC, V6H 3S2",Fairview,Government,,,Yes,-123.135541,49.272369
74,City of Vancouver Archives,www.vancouver.cayour-government/city-of-vancouver-archives.aspx?,Museum/Gallery,Library/Archives,"1150 Chestnut St, Vancouver, BC, V6J 3J9",Kitsilano,City of Vancouver,,,Yes,-123.142663,49.276084
75,City of Vancouver Artist Studio, https://vancouver.ca/people-programs/artist-live-work-studio-program.aspx,Studio/Rehearsal ,Artist Studio w/Residence,"272 E 4th Av, Vancouver, BC, V5T 4S2",Mount Pleasant,City of Vancouver,1500,,Yes,-123.0990734,49.2670319
76,City of Vancouver Artist Studio, https://vancouver.ca/people-programs/artist-live-work-studio-program.aspx,Studio/Rehearsal ,Artist Studio w/Residence,"428 W 8th Av, Vancouver, BC, V5Y 1N9",Mount Pleasant,Privately Owned,580,,Yes,-123.1134394,49.2636714
77,City of Vancouver Artist Studio, https://vancouver.ca/people-programs/artist-live-work-studio-program.aspx,Studio/Rehearsal ,Artist Studio w/Residence,"485 W 8th Av, Vancouver, BC, V5Y 3Z5",Mount Pleasant,Privately Owned,1100,,Yes,-123.1138,49.2641907
78,City of Vancouver Artist Studio, https://vancouver.ca/people-programs/artist-live-work-studio-program.aspx,Studio/Rehearsal ,Artist Studio w/Residence,"1202 E Pender St, Vancouver, BC, V6A 1W8",Strathcona,City of Vancouver,1446,,Yes,-123.0789337,49.2802238
79,City of Vancouver Artist Studio, https://vancouver.ca/people-programs/artist-live-work-studio-program.aspx,Studio/Rehearsal ,Artist Studio,"2050 Scotia St, Vancouver, BC, V5T 4T1",Mount Pleasant,City of Vancouver,2600,,Yes,-123.0982208,49.2667885
80,Clayzone Ceramics Gallery,www.clayzoneceramics.com,Educational,Educational Institution,"661 E 15th Av, Vancouver, BC, ",Mount Pleasant,Privately Owned,750,,Yes,-123.08964,49.257179
81,Coal Harbour Community Centre,http://vancouver.ca/parks-recreation-culture/coal-harbour-community-centre.aspx,Community Space,Community Centre/Hall,"480 Broughton St, Vancouver, BC, V6G 3H4",Downtown,Park Board/COV,,,Yes,-123.1258851,49.2901652
82,Coastal Peoples Fine Arts Gallery Gastown,http://www.coastalpeoples.com,Museum/Gallery,Museum/Gallery,"312 Water St, Vancouver, BC, V6B 1B6",Downtown,Privately Owned,,,Yes,-123.109198,49.2843539
83,Coastal Peoples Fine Arts Gallery Yaletown,http://www.coastalpeoples.com,Museum/Gallery,Museum/Gallery,"1024 Mainland St, Vancouver, BC, V6B 2T4",Downtown,Privately Owned,,,Yes,-123.119591,49.2762084
84,Colbourne House/ Marpole Museum,http://www.marpolehistorical.ca?,Museum/Gallery,Museum/Gallery,"8743 Sw Marine Dr, Vancouver, BC, V6P 6A5",Marpole,City of Vancouver,2000,,Yes,-123.1423354,49.2064788
85,Collingwood Neighborhood House,http://www.cnh.bc.ca,Community Space,Community Centre/Hall,"5288 Joyce St, Vancouver, BC, V5R 6C9",Renfrew-Collingwood,City of Vancouver,1500,,Yes,-123.0328014,49.2366135
86,Commodore Ballroom,http://www.commodoreballroom.ca?,Cafﾂ/Restaurant/Bar,Bar/Lounge/Cabaret,"868 Granville St, Vancouver, BC, V6Z 1K3",Downtown,Privately Owned,4205,,Yes,-123.1208909,49.2806189
87,Core Live/Work Studios,www.chf.bc.ca ,Studio/Rehearsal ,Artist Studio w/Residence,"275 Alexander St, Vancouver, BC, V6A 1C2",Strathcona,City of Vancouver,4500,,Yes,-123.0985607,49.2841198
88,Crafthouse Gallery,www.craftcouncilbc.ca,Museum/Gallery,Museum/Gallery,"1386 Cartwright St, Vancouver, BC, V6H 3R8",Fairview,Government,1200,,Yes,-123.13479,49.269837
89,Creekside Community Centre,http://vancouver.ca/parks-recreation-culture/creekside-community-recreation-centre.aspx,Community Space,Community Centre/Hall,"1 Athletes Way, Vancouver, BC, V5Y 0B1",Mount Pleasant,Park Board/COV,,,Yes,-123.1057142,49.2717878
90,Creekside Park,,Community Space,Plaza/Park/Band Shell,"1455 Quebec St, Vancouver, BC, V6A 3Z7",Downtown,City of Vancouver,177518,,Yes,-123.10319,49.274159
91,Croatian Cultural Centre,www.croatiancentre.com,Community Space,Community Centre/Hall,"3250 Commercial Dr, Vancouver, BC, V5N 4E4",Kensington-Cedar Cottage,Non-Profit,16543,,Yes,-123.06845,49.255421
92,Crystal Ballroom,www.crystalballrom.ca,Educational,Educational Institution,"768 Sw Marine Dr, Vancouver, BC, V6P 5Y7",Marpole,Privately Owned,5000,,Yes,-123.123043,49.207191
93,David Lam Multi-Purpose Hall,,Community Space,Community Centre/Hall,"50 E Pender St, Vancouver, BC, V6A 3V6",Downtown,City of Vancouver,,,Yes,-123.103387,49.280254
94,David Lam Park,,Community Space,Plaza/Park/Band Shell,"1300 Pacific Blvd, Vancouver, BC, V6Z 2V1",Downtown,City of Vancouver,467154,,Yes,-123.1241736,49.2724252
95,Dear Human Studio and Workshop space,http://www.dearhuman.ca/about/,Studio/Rehearsal ,Artist Studio,"141 W 7th Av, Vancouver, BC, V5Y 1L8",Mount Pleasant,Privately Owned,800,,Yes,-123.1078497,49.2647531
96,Djavad Mowafaghian Cinema,http://www.sfu.ca/mecs/facilities/goldcorp-centre-for-the-arts/meeting-rooms/djavadmowafaghian.html,Theatre/Performance,Cinema,"149 W Hastings St, Vancouver, BC, V6B 1H4",Downtown,Other,,350,Yes,-123.108528,49.282364
97,Doctor Vigari Gallery,www.doctorvigarigallery.com,Museum/Gallery,Museum/Gallery,"1816 Commercial Dr, Vancouver, BC, V5N 4A3",Grandview-Woodland,Privately Owned,,,Yes,-123.0692806,49.2683622
98,Dorothy Somerset Studio Theatre,,Theatre/Performance,Theatre,"6361 University Blvd, Vancouver, BC, V6T 1Z2",,Government,,120,Yes,-123.2543722,49.2643788
99,Douglas Park Community Centre,https://vancouver.ca/parks-recreation-culture/douglas-park-community-centre.aspx,Community Space,Community Centre/Hall,"801 W 22nd Av, Vancouver, BC, V5Z 1Z8",South Cambie,Park Board/COV,,,Yes,-123.1212774,49.25291725
100,Douglas Reynolds Gallery,www.douglasreynoldsgallery.com,Museum/Gallery,Museum/Gallery,"2335 Granville St, Vancouver, BC, V6H 3G4",Fairview,Privately Owned,,,Yes,-123.1385998,49.2648423
101,Douglas Udell Gallery,www.douglasudellgallery.com?,Museum/Gallery,Museum/Gallery,"1558 W 6th Av, Vancouver, BC, V6J 1R2",Fairview,Privately Owned,,,Yes,-123.1399725,49.2661804
102,Dr. Sun Yat-Sen Classical Chinese Garden ,www.vancouverchinesegarden.com?,Museum/Gallery,Garden/Aquarium/Science Centre,"578 Carrall St, Vancouver, BC, V6B 5K2",Downtown,City of Vancouver,5500,,Yes,-123.103361,49.279776
103,Dunbar Community Centre,http://dunbarcentre.org/dunbar/,Community Space,Community Centre/Hall,"4747 Dunbar St, Vancouver, BC, V6S 2H2",Dunbar-Southlands,Park Board/COV,,,Yes,-123.188252,49.24281543
104,Dundarave Print Workshop & Gallery,www.dundaraveprintworkshop.com,Museum/Gallery,Museum/Gallery,"1640 Johnston St, Vancouver, BC, V6H 3S2",Fairview,Privately Owned,230,,Yes,-123.1353489,49.2721848
105,Dynamo Arts Association,www.dynamoarts.tumblr.com?,Museum/Gallery,Museum/Gallery,"30 E 6th Ave, Vancouver, BC, V5T 1J4",Mount Pleasant,Privately Owned,6000,,Yes,-123.1040486,49.2653017
106,Eagle Spirit Gallery,www.eaglespiritgallery.com,Museum/Gallery,Museum/Gallery,"1803 Maritime Mews, Vancouver, BC, V6H 3W7",Fairview,Privately Owned,,,Yes,-123.136077,49.2710507
107,"Earl Kraul & Grant Strate Studio, The",www.thedancecentre.ca?,Studio/Rehearsal ,Rehearsal Studio,"677 Davie St, Vancouver, BC, V6B 2G6",Downtown,Privately Owned,28166,,Yes,-123.125738,49.277084
108,East Van Studios,http://eastvanstudios.wordpress.com/,Studio/Rehearsal ,Film/Recording Studio,"870 E Cordova St, Vancouver, BC, V6A 1M4",Strathcona,Privately Owned,1500,,Yes,-123.0854969,49.2817549
109,Edam Performing Arts Society,www.edamdance.org?,Studio/Rehearsal ,Rehearsal Studio,"303 E 8th Av, Vancouver, BC, V5T 1S1",Mount Pleasant,Privately Owned,2240,,Yes,-123.098697,49.263935
110,"Edge, The",,Studio/Rehearsal ,Artist Studio w/Residence,"289 Alexander St, Vancouver, BC, V6A 4H6",Strathcona,Privately Owned,690,,Yes,-123.09843,49.2844308
111,Electric Owl,www.electricowl.ca,Cafﾂ/Restaurant/Bar,Bar/Lounge/Cabaret,"928 Main St, Vancouver, BC, V6A 2W1",Strathcona,Privately Owned,8000,,Yes,-123.0997603,49.2762334
112,Elissa Cristall Galleries,http://cristallgallery.com,Museum/Gallery,Museum/Gallery,"2239 Granville St, Vancouver, BC, V6H 3G1",Fairview,Privately Owned,,,Yes,-123.1385822,49.2655257
113,Elm Park Field House,http://vancouver.ca/parks-recreation-culture/elm-park-fieldhouse.aspx,Studio/Rehearsal ,Artist Studio,"5800 Elm St, Vancouver, BC, V6N 1A3",Kerrisdale,Park Board/COV,530,,Yes,-123.1641351,49.2341311
114,Emily Carr Institute of Art + Design,www.ecuad.ca,Educational,Educational Institution,"1399 Johnston St, Vancouver, BC, V6H 2R9",Fairview,Government,198692,,Yes,-123.132857,49.270461
115,Emily Carr Institute of Art + Design,,Educational,Educational Institution,"1535 W 3rd Av, Vancouver, BC, V6J 1J8",Fairview,,8070,,Yes,-123.1396911,49.2690422
116,Emily Carr Institute of Art + Design,,Educational,Educational Institution,"1706 W 1st Av, Vancouver, BC, V6J 0E4",Fairview,,11499,,Yes,-123.1432746,49.2706035
117,Emily Carr Institute of Art + Design 1612 Gallery,,Museum/Gallery,Museum/Gallery,"1612 W 3rd Av, Vancouver, BC, V6J 1K2",Fairview,,2833,,Yes,-123.1411548,49.2688004
118,Equinox Gallery,www.equinoxgallery.com,Museum/Gallery,Museum/Gallery,"525 Great Northern Way, Vancouver, BC, V5T 1E1",Strathcona,Privately Owned,14000,,Yes,-123.09226,49.267609
119,Falaise Park Field House,http://vancouver.ca/parks-recreation-culture/falaise-park-fieldhouse.aspx,Studio/Rehearsal ,Artist Studio,"3434 Falaise Av, Vancouver, BC, V5M 4C1",Renfrew-Collingwood,Park Board/COV,,,Yes,-123.03,49.2551
120,False Creek Community Centre,http://www.falsecreekcc.ca/,Community Space,Community Centre/Hall,"1318 Cartwright St, Vancouver, BC, V6H 3R8",Fairview,Park Board/COV,,,Yes,-123.1340203,49.26939707
121,FanClub,http://vancouverfanclub.ca/,Theatre/Performance,Performance Space,"1050 Granville St, Vancouver, BC, V6Z 1L2",Downtown,Privately Owned,6500,,Yes,-123.1235587,49.2784977
122,"Faris Family Studio, The",,Theatre/Performance,Theatre,"677 Davie St, Vancouver, BC, V6B 2G6",Downtown,Non-Profit,2944,154,Yes,-123.125711,49.277065
123,Federation Gallery,http://artists.ca/federation_gallery,Museum/Gallery,Museum/Gallery,"1241 Cartwright St, Vancouver, BC, V6H 4B7",Fairview,Privately Owned,1200,,Yes,-123.13225,49.269582
124,Fei & Milton Wong Experimental Theatre,http://www.gvpta.ca/vancouver-theatre-guide/venue/fei-and-milton-wong-experimental-theatre-goldcorp-centre-for-the-arts/,Theatre/Performance,Theatre,"149 W Hastings St, Vancouver, BC, V6B 1H4",Downtown,Other,,440,Yes,-123.10859,49.282402
125,FIELD Contemporary,www.field-contemporary.com,Museum/Gallery,Museum/Gallery,"17 W Broadway, Vancouver, BC, V5Y 1P1",Mount Pleasant,Privately Owned,800,,Yes,-123.1058083,49.2630895
126,Firehall Arts Centre,www.firehallartscentre.ca?,Theatre/Performance,Theatre,"280 E Cordova St, Vancouver, BC, V6A 1L3",Strathcona,City of Vancouver,12386,136,Yes,-123.097921,49.282083
127,Forge and Form,www.forgeandform.com,Studio/Rehearsal ,Artist Studio,"1334 Cartwright St, Vancouver, BC, V6H 3R8",Fairview,Government,,,Yes,-123.1343033,49.2698934
128,Fortune Sound Club,http://www.fortunesoundclub.com/,Theatre/Performance,Performance Space,"147 E Pender St, Vancouver, BC, V6A 1T5",Downtown,Privately Owned,,,Yes,-123.1008605,49.2806621
129,Fox Cabaret,http://www.foxcabaret.com/,Cafﾂ/Restaurant/Bar,Bar/Lounge/Cabaret,"2321 Main St, Vancouver, BC, V5T 3C9",Mount Pleasant,Privately Owned,,,Yes,-123.1014108,49.2642396
130,Frederic Wood Theatre,http://www.theatre.ubc.ca/facilities_images.shtml,Theatre/Performance,Theatre,"6354 Crescent Rd, Vancouver, BC, V6T 1Z2",,Government,,400,Yes,-123.2572691,49.268215
131,Gallery 295,http://gallery295.com/295/,Museum/Gallery,Museum/Gallery,"295 E 2nd Ave, Vancouver, BC, V5T 1B8",Strathcona,Privately Owned,,,Yes,-123.0981191,49.2680645
132,Gallery Gachet,www.gachet.org?,Museum/Gallery,Museum/Gallery,"88 E Cordova St, Vancouver, BC, V6A 1K2",Downtown,Privately Owned,2600,,Yes,-123.102645,49.2821
133,Gallery Jones,www.galleryjones.com?,Museum/Gallery,Museum/Gallery,"1725 W 3rd Av, Vancouver, BC, V6J 1K7",Fairview,Privately Owned,,,Yes,-123.1438197,49.2689012
134,Gallery of BC Ceramics,http://www.bcpotters.com/Gallery/index.php,Museum/Gallery,Museum/Gallery,"1359 Cartwright St, Vancouver, BC, V6H 3R7",Fairview,Non-Profit,,,Yes,-123.134283,49.270046
135,Gam Gallery,http://gamgallery.com/contact/,Museum/Gallery,Museum/Gallery,"110 E Hastings St, Vancouver, BC, V6N 1N4",Downtown,,2000,,Yes,-123.101858,49.2813343
136,GMS Observatory,http://www.spacecentre.ca/gms,Museum/Gallery,Garden/Aquarium/Science Centre,"1100 Chestnut St, Vancouver, BC, V6J 3J9",Kitsilano,City of Vancouver,2811,,Yes,-123.144436,49.276261
137,Goh Ballet Academy,www.gohballet.com,Educational,Educational Institution,"2345 Main St, Vancouver, BC, V5T 3C9",Mount Pleasant,Privately Owned,12000,,Yes,-123.101297,49.263875
138,Goldcorp Centre for the Arts SFU,www.sfu.ca,Educational,Educational Institution,"149 W Hastings St, Vancouver, BC, V6B 1H4",Downtown,Other,125000,,Yes,-123.108696,49.28243
139,Granville Fine Arts,www.granvillefineart.com?,Museum/Gallery,Museum/Gallery,"2447 Granville St, Vancouver, BC, V6H 3G5",Fairview,Privately Owned,,,Yes,-123.1386339,49.2638926
140,Granville Island,,Community Space,Plaza/Park/Band Shell," , Vancouver, BC, ",Fairview,Government,,,Yes,-123.134845,49.269463
141,Granville Island Gallery,www.granvilleislandgallery.com?,Museum/Gallery,Museum/Gallery,"1494 Old Bridge St, Vancouver, BC, V6H 3S6 ",Fairview,Government,,,Yes,-123.134769,49.270213
142,Granville Street/ Entertainment District,,Community Space,Plaza/Park/Band Shell," , Vancouver, BC, ",Downtown,City of Vancouver,,,Yes,-123.11966,49.281457
143,Great Northern Way Scene Shop,www.gnwshop.ca?,Studio/Rehearsal ,Workshop,"281 Industrial, Vancouver, BC, V5A 2P2",Strathcona,City of Vancouver,,,Yes,-123.098432,49.270087
144,Green Thumb Theatre for Young People- Studio 1,www.greenthumb.bc.ca,Studio/Rehearsal ,Rehearsal Studio,"5560 Mckinnon St, Vancouver, BC, V5R 0B6",Renfrew-Collingwood,Privately Owned,2030,,Yes,-123.038613,49.234069
145,Green Thumb Theatre For Young People- Studio 2,,Studio/Rehearsal ,Rehearsal Studio,"5560 Mckinnon St, Vancouver, BC, V5R 0B6",Renfrew-Collingwood,Privately Owned,,,Yes,-123.038603,49.23408
146,Grunt Gallery,www.grunt.ca?,Museum/Gallery,Museum/Gallery,"350 E 2nd Av, Vancouver, BC, V5T 4R8",Mount Pleasant,Non-Profit,1350,,Yes,-123.09715,49.26676
147,H.R. Macmillan Space Centre,http://www.spacecentre.ca/,Museum/Gallery,Garden/Aquarium/Science Centre,"1100 Chestnut St, Vancouver, BC, V6J 3J9",Kitsilano,City of Vancouver,,,Yes,-123.144299,49.276361
148,Hadden Park Field House,http://vancouver.ca/parks-recreation-culture/hadden-park-fieldhouse.aspx,Studio/Rehearsal ,Artist Studio,"1015 Maple St, Vancouver, BC, V6J 3R4",Kitsilano,Park Board/COV,,,Yes,-123.1500693,49.2770875
149,Harbour Dance Center,http://www.harbourdance.com/,Studio/Rehearsal ,Rehearsal Studio,"927 Granville St, Vancouver, BC, V6Z 1L3",Downtown,Privately Owned,9781,,Yes,-123.1221484,49.2799092
150,Harrison Galleries,www.harrisongalleries.com,Museum/Gallery,Museum/Gallery,"901 Homer St, Vancouver, BC, V6B 2W6",Downtown,Privately Owned,4500,,Yes,-123.1184779,49.2784569
151,Hastings Community Centre,https://vancouver.ca/parks-recreation-culture/hastings-community-centre.aspx,Community Space,Community Centre/Hall,"3096 E Hastings St, Vancouver, BC, V5K 2A3",Hastings-Sunrise,Park Board/COV,,,Yes,-123.039369,49.280678
152,Hastings Mill Store Museum,www.hastings-mill-museum.ca?,Museum/Gallery,Museum/Gallery,"1575 Alma St, Vancouver, BC, V6R 3P3",West Point Grey,City of Vancouver,2000,,Yes,-123.185988,49.272817
153,Havana Gallery,www.havanarestaurant.ca,Museum/Gallery,Museum/Gallery,"1212 Commercial Dr, Vancouver, BC, V5L 3X4",Grandview-Woodland,Privately Owned,,,Yes,-123.069421,49.273662
154,Havana Theatre,www.havanarestaurant.ca,Theatre/Performance,Theatre,"1212 Commercial Dr, Vancouver, BC, V5L 3X4",Grandview-Woodland,Privately Owned,,60,Yes,-123.0694828,49.2737114
155,Haywood Bandstand,,Community Space,Plaza/Park/Band Shell,"1755 Beach Av, Vancouver, BC, ",West End,Park Board/COV,,,Yes,-123.141944,49.285278
156,Heffel Gallery Ltd,www.heffel.com,Museum/Gallery,Museum/Gallery,"2247 Granville St, Vancouver, BC, V6H 3G1",Fairview,Privately Owned,7500,,Yes,-123.1389124,49.2654685
157,Heritage Hall,www.heritagehall.bc.ca,Community Space,Community Centre/Hall,"3102 Main St, Vancouver, BC, V5T 3G7",Mount Pleasant,City of Vancouver,3300,150,Yes,-123.100944,49.257332
158,Hillcrest Centre,http://vancouver.ca/parks-recreation-culture/hillcrest-centre.aspx,Community Space,Community Centre/Hall,"4575 Clancy Loranger Way, Vancouver, BC, V5Y 2M4",Riley Park,Park Board/COV,,,Yes,-123.1042916,49.24169227
159,Hill's Native Art,www.hillsnativeart.com,Museum/Gallery,Museum/Gallery,"165 Water St, Vancouver, BC, V6B 1A7",Downtown,Privately Owned,,,Yes,-123.1081528,49.2844721
160,Holy Rosary Cathedral,www.hrc.rcav.org,Community Space,Place of Worship,"646 Richards St, Vancouver, BC, V6B 3A3",Downtown,Other,16744,,Yes,-123.1152408,49.2818067
161,Holy Trinity Ukrainian Orthodox Cathedral,http://uocvancouver.com/,Community Space,Place of Worship,"154 E 10th Av, Vancouver, BC, V5T 1Z4",Mount Pleasant,Other,,250,Yes,-123.1021053,49.2617605
162,Hot Art Wet City,http://hotartwetcity.com/,Museum/Gallery,Museum/Gallery,"2206 Main St, Vancouver, BC, V5T 3C7",Mount Pleasant,Privately Owned,1036,50,Yes,-123.1007282,49.2653981
163,Ian Tan Gallery,www.iantangallery.com?,Museum/Gallery,Museum/Gallery,"2202 Granville St, Vancouver, BC, V6H 4H7",Fairview,Privately Owned,,,Yes,-123.1383868,49.2661646
164,IL Centro-Italian Cultural Centre,www.italianculturalcentre.ca?,Community Space,Community Centre/Hall,"3075 Slocan St, Vancouver, BC, V5M 3E4",Renfrew-Collingwood,Non-Profit,9400,,Yes,-123.049576,49.256761
165,"Improv Centre, The",www.vtsl.com,Theatre/Performance,Performance Space,"1502 Duranleau St, Vancouver, BC, V6H 3S4",Fairview,Government,2188,186,Yes,-123.136248,49.270764
166,Interurban Gallery,,Museum/Gallery,Museum/Gallery,"1 E Hastings St, Vancouver, BC, V6A 1M9",Downtown,Privately Owned,,,Yes,-123.1043161,49.2815282
167,Inuit Gallery of Vancouver,www.inuit.com,Museum/Gallery,Museum/Gallery,"206 Cambie St, Vancouver, BC, V6B 2M9",Downtown,Privately Owned,,,Yes,-123.1088083,49.2842455
168,"Ironworks Studios, The",www.theironworks.ca,Theatre/Performance,Performance Space,"235 Alexander St, Vancouver, BC, V6A 1C2",Strathcona,Privately Owned,4700,180,Yes,-123.099046,49.284153
169,Jack Poole Plaza,http://www.vancouverconventioncentre.com/jack-poole-plaza/,Community Space,Plaza/Park/Band Shell," , Vancouver, BC, ",Downtown,Government,46284,,Yes,-123.118259,49.289387
170,James Tan Gallery,http://www.jamestan.com/home.htm,Museum/Gallery,Museum/Gallery,"437 Columbia St, Vancouver, BC, V6A 2R9",Downtown,Privately Owned,,,Yes,-123.1023067,49.2810853
171,Jennifer Kostuik Gallery,www.kostuikgallery.com?,Museum/Gallery,Museum/Gallery,"1070 Homer St, Vancouver, BC, V6B 2W9",Downtown,Privately Owned,,,Yes,-123.1211143,49.2766268
172,Jericho Arts Centre,www.jerichoartscentre.com?,Theatre/Performance,Theatre,"1675 Discovery St, Vancouver, BC, V6R 2K5",West Point Grey,Park Board/COV,5000,135,Yes,-123.202893,49.272369
173,Jericho Beach,,Community Space,Plaza/Park/Band Shell,"3941 Point Grey Rd., Vancouver, BC, V6R 1B5",West Point Grey,City of Vancouver,250799,,Yes,-123.1912389,49.2711948
174,Jewish Community Centre,www.jewishmuseum.ca?,Community Space,Community Centre/Hall,"950 W 41st Av, Vancouver, BC, V5Z 2N7",Oakridge,Non-Profit,14000,,Yes,-123.125991,49.233444
175,John Hendry Park (Trout Lake),,Community Space,Plaza/Park/Band Shell,"3300 Victoria Dr, Vancouver, BC, V5N 4L9",Kensington-Cedar Cottage,Park Board/COV,160565,,Yes,-123.06391,49.25716
176,John Oliver Secondary,http://go.vsb.bc.ca/schools/johnoliver/Pages/default.aspx,Educational,Educational Institution,"530 E 41st Av, Vancouver, BC, V5W 1P3",Sunset,Government,,,Yes,-123.0926825,49.2319794
177,Joy Kogawa House,http://www.kogawahouse.com,Studio/Rehearsal ,Artist Studio,"1450 W 64th Av, Vancouver, BC, V6P 2N4",Marpole,Non-Profit,,,Yes,-123.1384686,49.2128612
178,Judith R Marcuse Studio,,Studio/Rehearsal ,Rehearsal Studio,"677 Davie St, Vancouver, BC, V6B 2G6",Downtown,Privately Owned,800,50,Yes,-123.125727,49.277074
179,Kafka's Coffee and Tea,www.kafkascoffee.ca,Cafﾂ/Restaurant/Bar,Cafﾂ/Restaurant,"2525 Main St, Vancouver, BC, V5T 3E5",Mount Pleasant,Privately Owned,,,Yes,-123.101422,49.262355
180,Karen Flamenco Dance Soc.,http://karenflamenco.com,Studio/Rehearsal ,Rehearsal Studio,"60 W 7th Av, Vancouver, BC, V5Y 1L6",Mount Pleasant,Privately Owned,,,Yes,-123.106533,49.2644359
181,Kensington Community Centre,http://vancouver.ca/parks-recreation-culture/kensington-community-centre.aspx,Community Space,Community Centre/Hall,"5175 Dumfries St, Vancouver, BC, V5P 3A2",Kensington-Cedar Cottage,Park Board/COV,,,Yes,-123.0754802,49.23848156
182,Kerrisdale Community Centre,http://vancouver.ca/parks-recreation-culture/kerrisdale-community-centre.aspx,Community Space,Community Centre/Hall,"5851 West Blvd, Vancouver, BC, V6M 3W9",Kerrisdale,Park Board/COV,,,Yes,-123.1570929,49.23318536
183,Killarney Community Centre,https://vancouver.ca/parks-recreation-culture/killarney-community-centre.aspx,Community Space,Community Centre/Hall,"6260 Killarney St, Vancouver, BC, V5S 2X7",Killarney,Park Board/COV,,,Yes,-123.0443906,49.22740992
184,Kitsilano Showboat,http://www.kitsilanoshowboat.com/showboat.html,Community Space,Plaza/Park/Band Shell,"2300 Cornwall Av, Vancouver, BC, V6K 1B7",Kitsilano,City of Vancouver,1000,,Yes,-123.1573621,49.2725956
185,Kitsilano War Memorial Community Centre,http://vancouver.ca/parks-recreation-culture/kitsilano-war-memorial-community-centre.aspx,Community Space,Community Centre/Hall,"2690 Larch St, Vancouver, BC, V6K 4K9",Kitsilano,Park Board/COV,,,Yes,-123.1601056,49.26205534
186,La Maison De La Francophonie De Vancouver,www.lamaison.bc.ca,Community Space,Community Centre/Hall,"1555 W 7th Av, Vancouver, BC, V6J 1S1",Fairview,Privately Owned,,,Yes,-123.14003,49.26567
187,Labyrinth Gallery,http://labyrinthgallery.org/,Museum/Gallery,Museum/Gallery,"112 E Hastings St, Vancouver, BC, V6A 4J1",Downtown,Privately Owned,,,Yes,-123.1017894,49.2810651
188,"Landing Dance Centre, The",www.thelandingdance.com,Educational,Educational Institution,"270 Sw Marine Dr, Vancouver, BC, V5X 2R5",Marpole,Privately Owned,5470,,Yes,-123.112563,49.211381
189,Langara College - School of Creative And Applied Arts ,,Educational,Educational Institution,"100 W 49th Av, Vancouver, BC, V5Y 2Z6",Oakridge,Government,,,Yes,-123.108305,49.225191
190,Lattimer Gallery,www.lattimergallery.com?,Museum/Gallery,Museum/Gallery,"1590 W 2nd Av, Vancouver, BC, V6J 1H2",Fairview,Privately Owned,,,Yes,-123.1406592,49.2696829
191,Little Mountain Gallery,www.littlemountaingallery.com,Museum/Gallery,Museum/Gallery,"195 E 26th Av, Vancouver, BC, V5V 2G8",Riley Park,Privately Owned,,,Yes,-123.1014023,49.2480158
192,Lobby Gallery,http://www.ligi.ubc.ca/LobbyGallery.htm,Museum/Gallery,Museum/Gallery,"6476 NW Marine Dr, Vancouver, BC, ",,Other,200,,Yes,-123.259146,49.267681
193,Lumbermen's Arch,,Community Space,Plaza/Park/Band Shell," , Vancouver, BC, ",,City of Vancouver,66120,,Yes,-123.131707,49.302981
194,Maclean Field House,http://vancouver.ca/parks-recreation-culture/urban-weavers-artists-and-scientist.aspx,Studio/Rehearsal ,Artist Studio,"710 Keefer St, Vancouver, BC, V6A 1Y5",Strathcona,Park Board/COV,500,,Yes,-123.0884454,49.2788158
195,MakerLabs,www.makerlabs.ca,Studio/Rehearsal ,Workshop,"221 E 10th Av, Vancouver, BC, ",Mount Pleasant,Privately Owned,9500,,Yes,-123.0997391,49.2623075
196,Malaspina Printmakers Gallery,www.malaspinaprintmakers.com?,Museum/Gallery,Museum/Gallery,"1555 Duranleau St, Vancouver, BC, V6H 3S3",Fairview,Government,2500,,Yes,-123.135784,49.271369
197,"Malkin Bowl, The",www.malkinbowl.com,Theatre/Performance,Theatre,"610 Pipeline Rd, Vancouver, BC, V6G 3E2",,City of Vancouver,13105,2200,Yes,-123.133438,49.298848
198,Marion Scott Gallery,www.marionscottgallery.com,Museum/Gallery,Museum/Gallery,"2423 Granville St, Vancouver, BC, V6H 3G5",Fairview,Privately Owned,,,Yes,-123.1386272,49.264079
199,Marpole-Oakridge Community Centre,http://www.marpoleoakridge.org/,Community Space,Community Centre/Hall,"990 W 59th Av, Vancouver, BC, V6P 1X9 ",Marpole,Park Board/COV,,,Yes,-123.1274819,49.2144741
200,Mascall Dance,www.mascalldance.ca?,Studio/Rehearsal ,Rehearsal Studio,"1130 Jervis St, Vancouver, BC, V6E 2C7",West End,Privately Owned,2500,,Yes,-123.134145,49.283306
201,McBride field House,http://locomotoart.weebly.com/mcbride ,Studio/Rehearsal ,Artist Studio,"3350 W 4th Av, Vancouver, BC, ",Kitsilano,Park Board/COV,,,Yes,-123.1786705,49.2680825
202,"Media Club, The",www.themediaclub.ca?,Cafﾂ/Restaurant/Bar,Bar/Lounge/Cabaret,"695 Cambie St, Vancouver, BC, V6B 2P1",Downtown,City of Vancouver,,,Yes,-123.1131599,49.2794398
203,Memorial South Park Field House,http://vancouver.ca/parks-recreation-culture/memorial-south-park-fieldhouse.aspx,Studio/Rehearsal ,Artist Studio,"5955 Ross St, Vancouver, BC, V5W 1T7",Sunset,Park Board/COV,,,Yes,-123.082685,49.2303947
204,"Mergatroid Building, The",http://www.mergatroid.ca/,Studio/Rehearsal ,Artist Studio,"975 Vernon Drive, Vancouver, BC, V6A 3P2",Strathcona,Privately Owned,33500,,Yes,-123.07867,49.276097
205,Metro Theatre,www.metrotheatre.org?,Theatre/Performance,Theatre,"1370 Sw Marine Dr, Vancouver, BC, V6P 5Z9",Marpole,Privately Owned,,308,Yes,-123.1375815,49.20363
206,Metro Theatre Workshop and Rehearsal Hall,,Studio/Rehearsal ,Rehearsal Studio,"8960 Oak St, Vancouver, BC, V6P 4B7",Marpole,Privately Owned,,,Yes,-123.1300261,49.203966
207,Michelle Sirois-Silver Textile Art Studio,michellesirois-silver.com,Studio/Rehearsal ,Artist Studio,"1610 Clark Dr, Vancouver, BC, ",Grandview-Woodland,Privately Owned,200,,Yes,-123.077008,49.270306
208,Moberly Arts and Culture Centre,www.mysunset.net,Community Space,Community Centre/Hall,"7646 Prince Albert St, Vancouver, BC, V5X 3Z4",Sunset,Park Board/COV,2264,,Yes,-123.087343,49.215192
209,Moberly Park Field House,http://vancouver.ca/parks-recreation-culture/moberly-park-fieldhouse.aspx,Studio/Rehearsal ,Artist Studio,"7646 Prince Albert, Vancouver, BC, V5X 3Z4",Sunset,Park Board/COV,,,Yes,-123.087095,49.215253
210,Monte Clark Gallery,www.monteclarkgallery.com,Museum/Gallery,Museum/Gallery,"525 Great Northern Way, Vancouver, BC, V5T 1E1",Strathcona,Privately Owned,4000,,Yes,-123.0921743,49.26761
211,Morris and Helen Belkin Art Gallery,http://www.belkin.ubc.ca/,Museum/Gallery,Museum/Gallery,"1825 Main Mall, Vancouver, BC, V6T 1Z2",,Other,,,Yes,-123.255944,49.2683878
212,Mount Pleasant Community Centre,http://www.mountpleasantcc.ca/,Community Space,Community Centre/Hall,"1 Kingsway, Vancouver, BC, V5T 3H7",Mount Pleasant,Park Board/COV,,,Yes,-123.1000824,49.2641411
213,Museum of Vancouver,www.museumofvancouver.ca?,Museum/Gallery,Museum/Gallery,"1100 Chestnut St, Vancouver, BC, V6J 3J9",Kitsilano,City of Vancouver,75000,,Yes,-123.144897,49.276365
214,Musqueam Cultural Education Resource Centre,http://www.musqueam.bc.ca/,Community Space,Community Centre/Hall,"4000 Musqueam Av, Vancouver, BC, V6N 4C6",Dunbar-Southlands,Other,1300,,Yes,-123.1989191,49.2236866
215,New Leaf Editions,www.newleafeditions.com?,Studio/Rehearsal ,Workshop,"1370 Cartwright St, Vancouver, BC, V6H 3R7",Fairview,Privately Owned,,,Yes,-123.134665,49.269841
216,Norman Rothstein Theatre,www.normanrothsteintheatre.com?,Theatre/Performance,Theatre,"950 W 41st Av, Vancouver, BC, V5Z 2N7",Oakridge,Privately Owned,5300,318,Yes,-123.126011,49.233433
217,"O'Brian Centre for Vancouver Opera, The",www.vancouveropera.ca,Studio/Rehearsal ,Rehearsal Studio,"1945 Mclean Dr, Vancouver, BC, V5N 3J7",Grandview-Woodland,Privately Owned,3540,,Yes,-123.075658,49.267481
218,Octopus Studios,,Studio/Rehearsal ,Artist Studio,"393 Powell St, Vancouver, BC, V6A 1G5",Strathcona,Privately Owned,3000,,Yes,-123.0957216,49.2833651
219,Old Auditorium,http://www.music.ubc.ca/about-us/facilities/old-auditorium.html,Theatre/Performance,Theatre,"6344 Memorial Rd, Vancouver, BC, V6T 1Z2",,Government,,530,Yes,-123.255994,49.266904
220,On Main,www.onmaingallery.com?,Museum/Gallery,Museum/Gallery,"200 E 20th Av, Vancouver, BC, V5V 1M1",Riley Park,Privately Owned,,,Yes,-123.10056,49.252773
221,Oppenheimer Park,,Community Space,Plaza/Park/Band Shell," , Vancouver, BC, ",Strathcona,Park Board/COV,,,Yes,-123.094341,49.282643
222,Or Gallery,www.orgallery.org?,Museum/Gallery,Museum/Gallery,"555 Hamilton St, Vancouver, BC, V6B 2R1",Downtown,Privately Owned,2043,,Yes,-123.112094,49.281406
223,Orpheum Annex,http://vancouver.caparks-recreation-culture/rent-the-orpheum-annex.aspx,Theatre/Performance,Performance Space,"823 Seymour St, Vancouver, BC, V6B 5G1",Downtown,City of Vancouver,3500,193,Yes,-123.1194108,49.2803528
224,Orpheum Theatre ,https://vancouver.caparks-recreation-culture/the-orpheum.aspx,Theatre/Performance,Theatre,"601 Smithe St, Vancouver, BC, V6B 5G1",Downtown,City of Vancouver,,2688,Yes,-123.12051,49.279881
225,Ouisi Bistro,http://www.ouisibistro.com/#events,Cafﾂ/Restaurant/Bar,Cafﾂ/Restaurant,"3014 Granville St, Vancouver, BC, V6H 3J8",Fairview,Privately Owned,,,Yes,-123.1386441,49.258518
226,Our Town Cafﾂ,,Cafﾂ/Restaurant/Bar,Cafﾂ/Restaurant,"245 E Broadway, Vancouver, BC, V5T 1W4",Mount Pleasant,Privately Owned,,,Yes,-123.1001783,49.2631703
227,Pacific Cinematheque ,http://www.thecinematheque.caabout,Theatre/Performance,Cinema,"1131 Howe St, Vancouver, BC, V6Z 2L7",Downtown,City of Vancouver,4698,194,Yes,-123.12627,49.278552
228,Pacific Theatre,www.pacifictheatre.org?,Theatre/Performance,Theatre,"1440 W 12th Av, Vancouver, BC, V6H 1M8",Fairview,Privately Owned,1673,128,Yes,-123.1372216,49.2607195
229,Pal Studio Theatre,http://www.palstudiotheatre.com/,Theatre/Performance,Theatre,"581 Cardero St, Vancouver, BC, V6G 3L2",Downtown,Non-Profit,1600,150,Yes,-123.1295134,49.2913154
230,Pandora Park  Fieldhouse,http://cfapp.vancouver.ca/parkfinder_wa/index.cfm?fuseaction=FAC.ParkDetails&park_id=57,Studio/Rehearsal ,Artist Studio,"2325 Franklin st, Vancouver, BC, V5L 1S1",Grandview-Woodland,Park Board/COV,,,Yes,-123.0581806,49.2825401
231,Pandora's Box Rehearsal Studios,http://www.pandorasboxstudios.com/,Studio/Rehearsal ,Film/Recording Studio,"1890 Pandora St, Vancouver, BC, V5L 1M5",Grandview-Woodland,Privately Owned,8300,,Yes,-123.0656267,49.2830062
232,Paneficio Studios,,Studio/Rehearsal ,Artist Studio,"800 Keefer St, Vancouver, BC, V6A 1Y7",Strathcona,Privately Owned,,,Yes,-123.0872408,49.2792244
233,Parker Street Studios,,Studio/Rehearsal ,Artist Studio,"1000 Parker St, Vancouver, BC, V6A 2H2",Strathcona,Privately Owned,,,Yes,-123.0803477,49.2753465
234,Patricia Hotel/ Pat's Pub,http://www.patspub.ca/,Cafﾂ/Restaurant/Bar,Bar/Lounge/Cabaret,"403 E Hastings St, Vancouver, BC, V6A 1P6",Strathcona,Privately Owned,,,Yes,-123.0952046,49.2815471
235,Pendulum Gallery,www.pendulumgallery.bc.ca?,Museum/Gallery,Museum/Gallery,"885 W Georgia St, Vancouver, BC, V6C 3E8",Downtown,Privately Owned,2200,,Yes,-123.119963,49.283709
236,Peretz Centre for Secular Jewish Culture,http://www.peretz-centre.org/index.html,Community Space,Community Centre/Hall,"6184 Ash St, Vancouver, BC, V5Z 3G9",Oakridge,Non-Profit,8000,,Yes,-123.117654,49.229111
237,Performance Works,www.performanceworks.ca,Theatre/Performance,Performance Space,"1218 Cartwright St, Vancouver, BC, V6H 3R8",Fairview,Government,,350,Yes,-123.132002,49.269212
238,Performing Arts Lodge (PAL),http://www.palvancouver.org/?q=pal-theatre,Studio/Rehearsal ,Artist Housing,"581 Cardero St, Vancouver, BC, V6G 3L2",Downtown,Non-Profit,,,Yes,-123.130114,49.29119
239,Peter Kiss Gallery,www.peterkiss.com,Museum/Gallery,Museum/Gallery,"1327 Railspur Alley, Vancouver, BC, V6H 4G9",Fairview,Privately Owned,,,Yes,-123.1337947,49.2701374
240,Petley Jones Gallery,www.petleyjones.com?,Museum/Gallery,Museum/Gallery,"554 W 6th Av, Vancouver, BC, V6J 1R2",Mount Pleasant,Privately Owned,1500,,Yes,-123.0917358,49.2652275
241,Playwrights Theatre Centre,www.playwrightstheatre.com?,Studio/Rehearsal ,Rehearsal Studio,"739 Gore Av, Vancouver, BC, V6A 2Z9",Strathcona,Privately Owned,,,Yes,-123.0970675,49.2781751
242,Plaza of Nations,www.plazaofnations.com?,Community Space,Plaza/Park/Band Shell,"750 Pacific Blvd, Vancouver, BC, V6B 5E7",Downtown,Privately Owned,140000,,Yes,-123.110068,49.276031
243,PNE Amphitheatre,http://www.49st.com/venue/pne-amphitheatre#info,Community Space,Plaza/Park/Band Shell,"2901 E Hastings St, Vancouver, BC, V5K 5J1",Hastings-Sunrise,City of Vancouver,,4500,Yes,-123.037295,49.28416
244,PNE Forum,www.pne.ca,Community Space,Arena/Stadium,"2901 E Hastings St, Vancouver, BC, V5K 5J1",Hastings-Sunrise,City of Vancouver,44579,1250,Yes,-123.042992,49.282263
245,PNE Garden Auditorium,www.pne.ca,Educational,Educational Institution,"2901 E Hastings St, Vancouver, BC, V5K 5J1",Hastings-Sunrise,City of Vancouver,9000,600,Yes,-123.041812,49.281965
246,PNE Pacific Coliseum,www.pne.ca,Community Space,Arena/Stadium,"100 Renfrew St, Vancouver, BC, V5K 3N7",Hastings-Sunrise,City of Vancouver,56825,15713,Yes,-123.042747,49.285856
247,Polish Community Centre,http://polishcommunitycentre.com/,Community Space,Community Centre/Hall,"4015 Fraser St, Vancouver, BC, V5V 4E6",Riley Park,Privately Owned,,,Yes,-123.0902312,49.2491288
248,Portside Studios,,Studio/Rehearsal ,Artist Studio,"150 Mclean Dr, Vancouver, BC, V5L 3L1",Grandview-Woodland,Privately Owned,,,Yes,-123.0740061,49.2833711
249,Praxis Centre for Screenwriting,http://www.praxisfilm.com/en/default.aspx,Studio/Rehearsal ,Film/Recording Studio,"149 W Hastings St, Vancouver, BC, V6B 1H4",Downtown,Other,,,Yes,-123.108643,49.28238
250,Princeton Pub,www.princetonpub.com?,Cafﾂ/Restaurant/Bar,Bar/Lounge/Cabaret,"1901 Powell St, Vancouver, BC, V5L 1J2",Grandview-Woodland,Privately Owned,,,Yes,-123.0650265,49.284993
251,Progress Lab 1422,www.pl1422.blogspot.com?,Studio/Rehearsal ,Rehearsal Studio,"1422 William, Vancouver, BC, V5L 2P7",Grandview-Woodland,Privately Owned,1552,100,Yes,-123.0752583,49.2737909
252,Prophouse Cafﾂ,www.PropHouseCafe.com,Cafﾂ/Restaurant/Bar,Cafﾂ/Restaurant,"1636 Venables St, Vancouver, BC, V5L 2H2",Grandview-Woodland,Privately Owned,2000,,Yes,-123.0704947,49.2766423
253,Purple Thistle at Mergatroid Building,www.purplethistle.ca?,Studio/Rehearsal ,Artist Studio,"975 Vernon Drive, Vancouver, BC, V6A 3P2",Strathcona,Privately Owned,,,Yes,-123.0786643,49.2761045
254,Queen Elizabeth Park- Artist Residence,http://vancouver.ca/parks-recreation-culture/queen-elizabeth-park.aspx,Studio/Rehearsal ,Artist Studio,"4600 Cambie St, Vancouver, BC, V5Y 2M5",Riley Park,Park Board/COV,,,Yes,-123.111815,49.24203
255,Queen Elizabeth Theatre,http://vancouver.caparks-recreation-culture/queen-elizabeth-theatre.aspx,Theatre/Performance,Theatre,"650 Hamilton St, Vancouver, BC, V6B 5N6",Downtown,City of Vancouver,40000,2765,Yes,-123.113401,49.28046
256,Queen Elizabeth Theatre Plaza,,Community Space,Plaza/Park/Band Shell,"650 Hamilton St, Vancouver, BC, V6B 5N6",Downtown,City of Vancouver,23691.78,,Yes,-123.113393,49.27994
257,Railtown Studios,http://railtownstudios.com/,Studio/Rehearsal ,Artist Studio,"321 Railway St, Vancouver, BC, V6A 1A4",Strathcona,Privately Owned,,,Yes,-123.097645,49.2846363
258,"Railway Club, The",www.therailwayclub.com,Cafﾂ/Restaurant/Bar,Bar/Lounge/Cabaret,"579 Dunsmuir St, Vancouver, BC, V6B 1Y4",Downtown,Privately Owned,4500,165,Yes,-123.1151754,49.2828775
259,Raw Canavas,http://www.rawcanvas.com/,Cafﾂ/Restaurant/Bar,Cafﾂ/Restaurant,"1046 Hamilton St, Vancouver, BC, V6B 2R9",Downtown,Privately Owned,,,Yes,-123.1202261,49.2764562
260,Ray-Cam Co-Operative Center,http://vancouver.ca/parks-recreation-culture/ray-cam-co-operative-centre.aspx,Community Space,Community Centre/Hall,"920 E Hastings St, Vancouver, BC, V6A 3T1",Strathcona,Park Board/COV,,,Yes,-123.0840893,49.28073616
261,Red Gate Arts,,Studio/Rehearsal ,Artist Studio,"855 E Hastings St, Vancouver, BC, V6A 1R8",Strathcona,Privately Owned,7500,,Yes,-123.0859896,49.2811222
262,Remington Gallery and Studio,https://www.facebook.com/Remington.Gallery.and.Studio,Museum/Gallery,Museum/Gallery,"108 E Hastings St, Vancouver, BC, V6A 4J1",Downtown,,,,Yes,-123.1019396,49.281336
263,Renegade Studios Main Street,www.renegadeproductions.net,Studio/Rehearsal ,Rehearsal Studio,"125 E 2nd Av, Vancouver, BC, V5T 1B4",Mount Pleasant,Privately Owned,25000,,Yes,-123.1017261,49.2692732
264,Renfrew Park Community Centre,http://www.renfrewcc.com/,Community Space,Community Centre/Hall,"2929 E 22nd Av, Vancouver, BC, V5M 2Y3??",Renfrew-Collingwood,Park Board/COV,,,Yes,-123.0429581,49.25242491
265,Rennie collection at Wing Sang,,Museum/Gallery,Museum/Gallery,"51 E Pender St, Vancouver, BC, V6A 1S9",Downtown,Privately Owned,20000,,Yes,-123.1031317,49.2806995
266,"Rhythm Room, The",www.s2sproductions.com,Studio/Rehearsal ,Rehearsal Studio,"8713 Cambie St, Vancouver, BC, ",Marpole,Privately Owned,1500,,Yes,-123.117986,49.206403
267,"Rickshaw Theatre, The",www.liveatrickshaw.com,Theatre/Performance,Theatre,"254 E Hastings St, Vancouver, BC, V6A 1P1",Strathcona,Privately Owned,10000,,Yes,-123.0983094,49.281272
268,"Rio Theatre, The",www.riotheatre.ca?,Theatre/Performance,Cinema,"1660 E Broadway, Vancouver, BC, V5N 1W1",Kensington-Cedar Cottage,Privately Owned,,420,Yes,-123.0704852,49.2620042
269,Roedde House,www.roeddehouse.orgen/home?,Museum/Gallery,Museum/Gallery,"1415 Barclay St, Vancouver, BC, V6G 1J6",West End,City of Vancouver,3000,,Yes,-123.132187,49.286863
270,Rogers Arena,http://rogersarena.com/,Community Space,Arena/Stadium,"800 Griffiths Way, Vancouver, BC, V6B 6G1",Downtown,Privately Owned,17000,20000,Yes,-123.109143,49.277049
271,Roundhouse Community Centre,www.roundhouse.ca?,Community Space,Community Centre/Hall,"181 Roundhouse Mews, Vancouver, BC, V6Z 2W3",Downtown,City of Vancouver,20000,,Yes,-123.121747,49.273308
272,Roy Barnett Recital Hall,http://www.music.ubc.ca/about-us/facilities/roy-barnett-recital-hall.html,Theatre/Performance,Performance Space,"6361 Memorial Rd, Vancouver, BC, V6T 1Z2",,Other,,255,Yes,-123.256613,49.267411
273,Russian Community Centre Of Vancouver,www.russiancentrevancouver.org,Community Space,Community Centre/Hall,"2114 W 4th Av, Vancouver, BC, V6K 1N6",Kitsilano,Privately Owned,,,Yes,-123.1531395,49.2680684
274,Russian Hall,,Community Space,Community Centre/Hall,"600 Campbell Av, Vancouver, BC, V6A 3K1",Strathcona,Non-Profit,6300,,Yes,-123.084646,49.27895
275,Ryerson United Church,www.ryersonunited.ca,Community Space,Place of Worship,"2195 W 45th Av, Vancouver, BC, V6M  2J2",Kerrisdale,Other,,450,Yes,-123.1585257,49.2309378
276,Sarah Mclachlan School Of Music,www.sarahschoolofmusic.com?,Educational,Educational Institution,"138 E 7th Av, Vancouver, BC, V5T 1M6",Mount Pleasant,Privately Owned,16000,,Yes,-123.101954,49.264581
277,Satellite Gallery,www.satellitegallery.ca,Museum/Gallery,Museum/Gallery,"560 Seymour St, Vancouver, BC, V6B 3J5",Downtown,Privately Owned,3500,,Yes,-123.114585,49.283183
278,Science World At Telus World Of Science,www.scienceworld.ca?,Museum/Gallery,Garden/Aquarium/Science Centre,"1455 Quebec St, Vancouver, BC, V6A 3Z7",Downtown,Government,170000,600,Yes,-123.103652,49.273743
279,Scottish Cultural Centre,www.scottishculturalcentre.com?,Community Space,Community Centre/Hall,"8886 Hudson St, Vancouver, BC, V6P 4N2",Marpole,Non-Profit,8431,,Yes,-123.134666,49.204487
280,Secret Lantern Society,,Studio/Rehearsal ,Workshop,"328 -B Industrial Av, Vancouver, BC, ",Strathcona,Privately Owned,1500,,Yes,-123.0965625,49.2695868
281,Slocan Park Field House,http://vancouver.ca/parks-recreation-culture/slocan-park-fieldhouse.aspx,Studio/Rehearsal ,Artist Studio,"2750 E 29th Av, Vancouver, BC, V5R 1V6",Renfrew-Collingwood,Park Board/COV,2077,,Yes,-123.0483891,49.244559
282,Soundhouse Studios,http://www.soundhousestudios.com/,Studio/Rehearsal ,Film/Recording Studio,"33 W 8th Av, Vancouver, BC, V5Y 1M8",Mount Pleasant,Privately Owned,7000,,Yes,-123.1057281,49.2640305
283,Spirit Wrestler Gallery,www.spiritwrestler.com,Museum/Gallery,Museum/Gallery,"47 Water St, Vancouver, BC, V6B 1A1",Downtown,Privately Owned,,,Yes,-123.105348,49.2837331
284,St James Community Square ,www.sjcommunitysquare.org,Theatre/Performance,Performance Space,"3214 W 10th Av, Vancouver, BC, V6K 2L2",Kitsilano,Privately Owned,4000,,Yes,-123.1765215,49.2630518
285,St. Andrews-Wesley United Church,www.standrewswesleychurch.bc.ca?,Community Space,Place of Worship,"1012 Nelson St, Vancouver, BC, V6E 1H8",West End,Other,,1200,Yes,-123.1266077,49.2815242
286,St. James' Anglican Church,www.stjames.bc.ca,Community Space,Place of Worship,"303 E Cordova St, Vancouver, BC, V6A 1L4",Strathcona,Other,,,Yes,-123.0971846,49.2825039
287,Strathcona Community Centre,https://vancouver.ca/parks-recreation-culture/strathcona-community-centre.aspx,Community Space,Community Centre/Hall,"601 Keefer St, Vancouver, BC, V6A 3V8",Strathcona,Park Board/COV,,,Yes,-123.0915462,49.27977979
288,Strathcona Park Field House,http://vancouver.ca/parks-recreation-culture/strathcona-park-fieldhouse.aspx,Studio/Rehearsal ,Artist Studio,"857 Malkin Av, Vancouver, BC, V6A 2K5",Strathcona,Park Board/COV,350,,Yes,-123.083385,49.2739359
289,Studio 1398,www.giculturalsociety.org/studio1398/,Studio/Rehearsal ,Rehearsal Studio,"1398 Cartwright St, Vancouver, BC, V6H 3R8",Fairview,Government,1748,96,Yes,-123.135137,49.269883
290,Studio 16/Theatre La Seizieme,www.seizieme.ca?,Studio/Rehearsal ,Rehearsal Studio,"1555 W 7th Av, Vancouver, BC, V6J 1S1",Fairview,Privately Owned,,120,Yes,-123.140093,49.2655999
291,Sunset Community Centre,http://www.mysunset.net/,Community Space,Community Centre/Hall,"6810 Main St, Vancouver, BC, V5X 0A1 ",Sunset,Park Board/COV,,,Yes,-123.1006104,49.22286659
292,Taiwanese Canadian Cultural Society,www.tccs.ca,Community Space,Community Centre/Hall,"8853 Selkirk St, Vancouver, BC, V6P 4J6",Marpole,Privately Owned,,,Yes,-123.1338135,49.2047023
293,Tangent Cafﾂ,http://tangentcafe.ca/,Cafﾂ/Restaurant/Bar,Cafﾂ/Restaurant,"2095 Commercial Dr, Vancouver, BC, V5N 4A9",Grandview-Woodland,Privately Owned,,,Yes,-123.0698073,49.266022
294,Teck Gallery,https://www.sfu.ca/galleries/teck-gallery.html,Museum/Gallery,Museum/Gallery,"515 W Hastings St, Vancouver, BC, V6B 0B2",Downtown,Privately Owned,625,,Yes,-123.1119735,49.2841655
295,The Apartment,http://theapt.ca/filter/Exhibition,Museum/Gallery,Museum/Gallery,"119B E Pender St, Vancouver, BC, V6A 1T6",Downtown,Privately Owned,,,Yes,-123.1015866,49.2804859
296,Thunderbird Community Centre,http://vancouver.ca/parks-recreation-culture/thunderbird-community-centre.aspx,Community Space,Community Centre/Hall,"2311 Cassiar St, Vancouver, BC, V5M 3X3",Hastings-Sunrise,Park Board/COV,,,Yes,-123.0321037,49.26360784
297,Tom Lee Music Recital Hall,www.tomleemusic.ca,Theatre/Performance,Performance Space,"929 Granville St, Vancouver, BC, V6Z 1L3",Downtown,Privately Owned,,,Yes,-123.1224555,49.2800125
298,Tracey Lawrence Gallery,,Museum/Gallery,Museum/Gallery,"1531 W 4th Av, Vancouver, BC, V6J 1L6",Fairview,Privately Owned,,,Yes,-123.139461,49.267975
299,Trees Organic Coffee House,http://www.treescoffee.com/,Cafﾂ/Restaurant/Bar,Cafﾂ/Restaurant,"450 Granville St, Vancouver, BC, V6C 1V4",Downtown,Privately Owned,,,Yes,-123.11431,49.284923
300,Trench Gallery,www.trenchgallery.com,Museum/Gallery,Museum/Gallery,"148 Alexander St, Vancouver, BC, V6A 1B5",Downtown,Privately Owned,1000,,Yes,-123.1010921,49.2839469
301,Trout Lake Community Centre,https://vancouver.ca/parks-recreation-culture/trout-lake-community-centre.aspx,Community Space,Community Centre/Hall,"3360 Victoria Dr, Vancouver, BC, V5N 4M4",Kensington-Cedar Cottage,Park Board/COV,,,Yes,-123.065438,49.255325
302,UBC Museum of Anthropology,http://moa.ubc.ca/,Museum/Gallery,Museum/Gallery,"6393 NW Marine Dr, Vancouver, BC, V6T 1Z2",,Other,38889,,Yes,-123.259174,49.26907
303,UBC School of Music,www.music.ubc.ca,Educational,Educational Institution,"6361 Memorial Rd, Vancouver, BC, V6T 1Z2",,Other,,,Yes,-123.256757,49.267358
304,UBC Thunderbird Arena,http://thunderbirdarena.ubc.ca/,Community Space,Arena/Stadium,"2555 Wesbrook Mall, Vancouver, BC, V6T 1Z3",,Government,17000,5033,Yes,-123.2413205,49.2612385
305,Unit/Pitt Projects ,www.helenpittgallery.org,Museum/Gallery,Museum/Gallery,"236 E Pender St, Vancouver, BC, V6A 1T7",Strathcona,Privately Owned,759,,Yes,-123.098813,49.280103
306,Uno Langmann Limited Fine Arts,www.langmann.com,Museum/Gallery,Museum/Gallery,"2117 Granville St, Vancouver, BC, V6H 3E9",Fairview,Privately Owned,,,Yes,-123.1388698,49.2666423
307,Uzume Taiko Drum Group Society,www.uzume.com?,Studio/Rehearsal ,Rehearsal Studio,"1254 Frances St, Vancouver, BC, V6A 1Z5",Strathcona,Privately Owned,,,Yes,-123.0779834,49.279451
308,Vag Plaza North,,Community Space,Plaza/Park/Band Shell," , Vancouver, BC, ",Downtown,City of Vancouver,,,Yes,-123.119848,49.283113
309,Van Dusen Botanical Gardens,http://vandusengarden.org/,Museum/Gallery,Garden/Aquarium/Science Centre,"5251 Oak St, Vancouver, BC, V6M 4H1",Shaughnessy,Park Board/COV,2368060,,Yes,-123.128627,49.238472
310,Vancity Theatre,http://www.viff.org/theatre/facility-info,Theatre/Performance,Cinema,"1181 Seymour St, Vancouver, BC, V6B 3M7",Downtown,Privately Owned,650,170,Yes,-123.124732,49.276974
311,Vancouver Aboriginal Friendship Centre,http://www.vafcs.org/,Community Space,Community Centre/Hall,"1607 E Hastings St, Vancouver, BC, V5L 1S9",Grandview-Woodland,Other,,,Yes,-123.0724904,49.2813439
312,Vancouver Academy Of Music,http://vancouveracademyofmusic.com,Educational,Educational Institution,"1270 Chestnut St, Vancouver, BC, V6J 4R9",Kitsilano,City of Vancouver,40000,,Yes,-123.144548,49.274884
313,Vancouver Access Artist Run Centre,www.accessgallery.ca,Museum/Gallery,Museum/Gallery,"222 E Georgia St, Vancouver, BC, V6A 1Z7",Strathcona,Privately Owned,1020,,Yes,-123.098757,49.278453
314,Vancouver Adapted Music,www.vams.org/,Studio/Rehearsal ,Film/Recording Studio,"4225 Laurel St, Vancouver, BC, V5Z 2G9",South Cambie,Privately Owned,,,Yes,-123.1248217,49.2476977
315,Vancouver Aquarium,www.vanaqua.org?,Museum/Gallery,Garden/Aquarium/Science Centre,"845 Avison Way, Vancouver, BC, V6G 3E2",,City of Vancouver,97000,,Yes,-123.130997,49.30067
316,Vancouver Art Gallery,www.vanartgallery.bc.ca,Museum/Gallery,Museum/Gallery,"750 Hornby St, Vancouver, BC, V6Z 2H7",Downtown,Government,165000,,Yes,-123.120932,49.283158
317,Vancouver Art Gallery Offsite,http://www.vanartgallery.bc.ca/the_exhibitions/public_art.html    ,Museum/Gallery,Museum/Gallery,"1100 W Georgia St, Vancouver, BC, V6E 0A8",West End,City of Vancouver,34033,,Yes,-123.124298,49.286205
318,Vancouver Art Therapy Institute (VATI),http://www.vati.bc.ca/,Educational,Educational Institution,"1575 Johnston St, Vancouver, BC, V6H 3R9",Fairview,,,,Yes,-123.1349366,49.2718984
319,Vancouver Burlesque Centre,http://www.vancouverburlesquecentre.ca/,Studio/Rehearsal ,Rehearsal Studio,"124 W 6th Av, Vancouver, BC, V5Y 1K6",Mount Pleasant,Privately Owned,,,Yes,-123.1075911,49.2655855
320,Vancouver Community Laboratory,http://vancommunitylab.com/,Studio/Rehearsal ,Workshop,"1907 Triumph St, Vancouver, BC, V5L 1K6",Grandview-Woodland,,5000,,Yes,-123.0652956,49.2841727
321,Vancouver Contemporary Art Gallery,www.contemporaryartgallery.ca?,Museum/Gallery,Museum/Gallery,"555 Nelson St, Vancouver, BC, V6B 6R5",Downtown,Privately Owned,5000,,Yes,-123.121183,49.278238
322,Vancouver Co-Operative Radio,www.coopradio.org?,Studio/Rehearsal ,Film/Recording Studio,"360 Columbia St, Vancouver, BC, V6A 4J1",Downtown,Non-Profit,,,Yes,-123.102125,49.281763
323,Vancouver East Cultural Centre- Historic Theatre,www.thecultch.com?,Theatre/Performance,Theatre,"1895 Venables St, Vancouver, BC, V5L 2H6",Grandview-Woodland,City of Vancouver,25000,195,Yes,-123.065797,49.276674
324,Vancouver East Cultural Centre- Vancity Culture Lab,www.thecultch.com?,Theatre/Performance,Theatre,"1895 Venables St, Vancouver, BC, V5L 2H6",Grandview-Woodland,City of Vancouver,2500,86,Yes,-123.065816,49.276676
325,Vancouver Holocaust Education Centre,www.vhec.org?,Museum/Gallery,Museum/Gallery,"950 W 41st Av, Vancouver, BC, V5Z 2N7",Oakridge,Privately Owned,,,Yes,-123.126013,49.233442
326,Vancouver Japanese Language School and Japanese Hall,http://www.vjls-jh.com,Community Space,Community Centre/Hall,"475 Alexander St, Vancouver, BC, V6A 1C6",Strathcona,Non-Profit,36000,,Yes,-123.093733,49.284251
327,Vancouver Maritime Museum,www.vancouvermaritimemuseum.com,Museum/Gallery,Museum/Gallery,"1905 Ogden Av, Vancouver, BC, V6J 1A3",Kitsilano,City of Vancouver,26215,,Yes,-123.147587,49.277465
328,Vancouver Photo Workshop,http://www.vancouverphotoworkshops.com/,Educational,Educational Institution,"14 W 7th Av, Vancouver, BC, V5Y 1L6",Mount Pleasant,Privately Owned,,,Yes,-123.1053882,49.2647093
329,Vancouver Playhouse Theatre,http://vancouver.caparks-recreation-culture/vancouver-playhouse.aspx,Theatre/Performance,Theatre,"600 Hamilton St, Vancouver, BC, V6B 6A1",Downtown,City of Vancouver,2600,668,Yes,-123.112328,49.2808
330,Vancouver Police Museum,www.vancouverpolicemuseum.ca?,Museum/Gallery,Museum/Gallery,"240 E Cordova St, Vancouver, BC, V6A 1L3",Strathcona,City of Vancouver,15392,,Yes,-123.0987999,49.282247
331,Vancouver Public Library,www.vpl.ca,Museum/Gallery,Library/Archives,"350 W Georgia St, Vancouver, BC, V6B 6B1",Downtown,City of Vancouver,12000,,Yes,-123.1151119,49.2804357
332,Vancouver Symphony Orchestra School Of Music,www.vsoschoolofmusic.ca?,Educational,Educational Institution,"843 Seymour St, Vancouver, BC, V6B 3L4",Downtown,City of Vancouver,25000,,Yes,-123.119768,49.280221
333,Vancouver Symphony Orchestra School of Music-Recital Hall (Pyatt Hall),www.vsoschoolofmusic.ca?,Theatre/Performance,Performance Space,"843 Seymour St, Vancouver, BC, V6B 3L4",Downtown,City of Vancouver,,120,Yes,-123.119792,49.280207
334,Vancouver Tap Dance Society,www.vantapdance.com?,Educational,Educational Institution,"2775 E Hastings St, Vancouver, BC, V5K 1Z8",Hastings-Sunrise,Non-Profit,1164,,Yes,-123.047414,49.281396
335,Vanier Park,,Community Space,Plaza/Park/Band Shell,"1000 Chestnut St, Vancouver, BC, V6J 3J9",Kitsilano,City of Vancouver,228194,,Yes,-123.146124,49.276777
336,Venue,www.venuelive.ca?,Cafﾂ/Restaurant/Bar,Bar/Lounge/Cabaret,"881 Granville St, Vancouver, BC, V6Z 1K7",Downtown,Privately Owned,10000,,Yes,-123.1211246,49.2805411
337,Visual Arts Studio-SFU School for the Contemporary Arts,http://www.sfu.ca/sca/index.php/programs/visual-arts,Educational,Educational Institution,"611 Alexander St, Vancouver, BC, V6A 1E1",Strathcona,Privately Owned,,,Yes,-123.0915178,49.2844372
338,Vivo Media Arts Centre,www.vivomediaarts.com,Studio/Rehearsal ,Film/Recording Studio,"1965 Main St, Vancouver, BC, V5T 3C1",Mount Pleasant,Privately Owned,5500,,Yes,-123.101242,49.267731
339,Vogue Theatre,www.voguetheatre.com,Theatre/Performance,Theatre,"918 Granville St, Vancouver, BC, V6Z 1L2",Downtown,Privately Owned,8986,1136,Yes,-123.1218259,49.2799671
340,Wall Centre Plaza,,Community Space,Plaza/Park/Band Shell,"1088 Burrard St, Vancouver, BC, V6Z 2R9",Downtown,Privately Owned,,,Yes,-123.1265368,49.2801175
341,Waterfront Theatre,www.waterfronttheatre.ca?,Theatre/Performance,Theatre,"1412 Cartwright St, Vancouver, BC, V6H 3R7",Fairview,Government,,224,Yes,-123.135508,49.270119
342,West 6th Artists Studios,,Studio/Rehearsal ,Artist Studio,"1571 W 6th Av, Vancouver, BC, V6J 1R1",Fairview,City of Vancouver,400,,Yes,-123.1401944,49.266238
343,West 6Th Artists Studios,,Studio/Rehearsal ,Artist Studio,"1573 W 6th Av, Vancouver, BC, V6J 1R1",Fairview,City of Vancouver,400,,Yes,-123.1400604,49.2663536
344,West End Community Centre,https://vancouver.ca/parks-recreation-culture/west-end-community-centre.aspx,Community Space,Community Centre/Hall,"870 Denman St, Vancouver, BC, V6G 2L8",West End,Park Board/COV,50000,,Yes,-123.1360738,49.28991296
345,Western Front Artist Studio,,Studio/Rehearsal ,Artist Studio,"303 E 8th Av, Vancouver, BC, V5T 1S1",Mount Pleasant,Privately Owned,,,Yes,-123.0986899,49.2639078
346,Western Front Gallery,www.front.bc.ca?,Museum/Gallery,Museum/Gallery,"303 E 8th Av, Vancouver, BC, V5T 1S1",Mount Pleasant,Privately Owned,3110,,Yes,-123.098654,49.263916
347,Western Front -Luxe Hall,,Theatre/Performance,Performance Space,"303 E 8th Av, Vancouver, BC, V5T 1S1",Mount Pleasant,Privately Owned,1250,126,Yes,-123.098716,49.263894
348,William Clark Studios,,Studio/Rehearsal ,Artist Studio,"1310 William St, Vancouver, BC, V5L 2P5",Grandview-Woodland,Privately Owned,,,Yes,-123.0771637,49.2740112
349,Winsor Gallery,www.winsorgallery.com,Museum/Gallery,Museum/Gallery,"258 E 1st Ave, Vancouver, BC, V5T 1A6",Strathcona,Privately Owned,6000,,Yes,-123.0984496,49.2689553
350,Wise Club Hall,www.wisehall.ca,Theatre/Performance,Performance Space,"1882 Adanac St, Vancouver, BC, V5L 2E2",Grandview-Woodland,Non-Profit,2600,225,Yes,-123.0660915,49.2772414
351,Woodward's Atrium,,Theatre/Performance,Performance Space,"111 W Hastings St, Vancouver, BC, V6B 1H4",Downtown,,,,Yes,-123.107579,49.282541
352,Writers' Exchange,,Studio/Rehearsal ,Workshop,"881 E Hastings St, Vancouver, BC, V6A 1R8",Strathcona,Privately Owned,,,Yes,-123.0853822,49.2811097
353,York Theatre,https://thecultch.com/locations/york-theatre/,Theatre/Performance,Theatre,"639 Commercial Dr, Vancouver, BC, V5L 2W2",Grandview-Woodland,City of Vancouver,15000,370,Yes,-123.0707458,49.2786795
354,Yuk Yuk's Comedy Club,http://www.yukyuks.com,Theatre/Performance,Performance Space,"2837 Cambie St, Vancouver, BC, V5Z 3Y8",Fairview,Privately Owned,,150,Yes,-123.1151069,49.2600654
